OBJECT_NAME,OBJECT_ID,EPOCH,MEAN_MOTION,ECCENTRICITY,INCLINATION,RA_OF_ASC_NODE,ARG_OF_PERICENTER,MEAN_ANOMALY,EPHEMERIS_TYPE,CLASSIFICATION_TYPE,NORAD_CAT_ID,ELEMENT_SET_NO,REV_AT_EPOCH,BSTAR,MEAN_MOTION_DOT,MEAN_MOTION_DDOT
ONEWEB-0522,2022-138AD,2026-06-10T07:39:18.765216,13.19724316,.00016869,87.9175,306.3250,95.9428,264.1897,0,U,54140,999,17590,.26595096E-4,.24E-6,0
ONEWEB-0523,2022-138AE,2026-06-10T14:09:35.259552,13.20770880,.00027627,87.9193,275.7550,103.2475,256.8966,0,U,54141,999,17843,.19022356E-3,.9E-6,0
ONEWEB-0524,2022-138AF,2026-06-10T06:38:41.341632,13.20770618,.00024034,87.9192,275.8145,120.9535,239.1835,0,U,54142,999,17839,.90640104E-4,.5E-6,0
ONEWEB-0525,2022-138AG,2026-06-10T15:23:18.264768,13.19725364,.00014749,87.9170,306.2686,102.2240,257.9058,0,U,54143,999,17596,.14207867E-3,.7E-6,0
ONEWEB-0526,2022-138AH,2026-06-10T03:26:50.541792,13.19725168,.00017253,87.9172,306.3682,100.6492,259.4835,0,U,54144,999,17587,.89314499E-4,.49E-6,0
ONEWEB-0529,2022-138AJ,2026-06-10T03:31:22.980000,13.19723868,.00015973,87.9165,306.3772,98.9539,261.1775,0,U,54145,999,17589,.84991086E-4,.47E-6,0
ONEWEB-0531,2022-138AK,2026-06-10T08:08:24.042624,13.20771453,.00027568,87.9189,275.7999,109.4336,250.7096,0,U,54146,999,17840,.20241613E-3,.95E-6,0
ONEWEB-0535,2022-138AL,2026-06-10T15:14:12.272064,13.19725157,.00021617,87.9172,306.2636,96.6225,263.5154,0,U,54147,999,17597,.10295255E-3,.54E-6,0
ONEWEB-0536,2022-138AM,2026-06-10T13:16:15.451968,13.20771393,.00028339,87.9179,275.7804,113.1418,247.0014,0,U,54148,999,17842,.54656353E-4,.35E-6,0
ONEWEB-0527,2022-166A,2026-06-10T14:00:01.999872,13.21825554,.0002361,87.9252,245.3241,93.1420,230.6032,0,U,54642,999,516,.12386908E+0,.51463E-3,0
ONEWEB-0528,2022-166B,2026-06-10T12:23:10.885344,13.21669214,.00018094,87.9253,245.3268,102.9837,257.1499,0,U,54643,999,17066,.10589703E-4,.17E-6,0
ONEWEB-0539,2022-166C,2026-06-10T15:06:50.156352,13.21826470,.00020174,87.9262,245.2755,93.0769,267.0596,0,U,54644,999,17067,-.62711011E-4,-.13E-6,0
ONEWEB-0540,2022-166D,2026-06-10T15:16:43.097952,13.21826449,.0002063,87.9256,245.3049,96.1619,263.9750,0,U,54645,999,17066,.14435695E-3,.73E-6,0
ONEWEB-0542,2022-166E,2026-06-10T11:43:21.266976,13.21827679,.0002089,87.9264,245.3020,91.2557,268.8816,0,U,54646,999,17065,.12607117E-3,.65E-6,0
ONEWEB-0545,2022-166F,2026-06-10T14:30:29.197440,13.21827674,.00022387,87.9253,245.2913,86.8860,273.2530,0,U,54647,999,17063,-.31746078E-3,-.118E-5,0
ONEWEB-0580,2022-166G,2026-06-10T12:05:08.837664,13.21827398,.00023362,87.9256,245.3113,91.7220,268.4181,0,U,54648,999,17066,.85895108E-4,.48E-6,0
ONEWEB-0582,2022-166H,2026-06-10T11:16:43.109760,13.21826554,.00022621,87.9255,245.3105,89.2117,270.9276,0,U,54649,999,17063,.7154801E-5,.16E-6,0
ONEWEB-0583,2022-166J,2026-06-10T15:11:40.287552,13.21827253,.0002079,87.9256,245.3014,96.3451,263.7920,0,U,54650,999,17066,-.46235782E-4,-.6E-7,0
ONEWEB-0584,2022-166K,2026-06-10T12:02:43.379808,13.21825409,.0002142,87.9252,245.3131,97.5678,262.5699,0,U,54651,999,17063,.60488417E-4,.38E-6,0
ONEWEB-0585,2022-166L,2026-06-10T14:25:39.443808,13.21826945,.00019362,87.9258,245.2803,103.2817,256.8533,0,U,54652,999,17065,-.24594173E-4,.3E-7,0
ONEWEB-0586,2022-166M,2026-06-10T14:45:00.111168,13.21824107,.00020224,87.9253,245.3030,94.1345,266.0021,0,U,54653,999,17065,-.22300181E-3,-.79E-6,0
ONEWEB-0587,2022-166N,2026-06-10T11:21:31.649472,13.21825708,.00019327,87.9268,245.3040,109.4607,250.6736,0,U,54654,999,17079,-.55414098E-3,-.216E-5,0
ONEWEB-0589,2022-166P,2026-06-10T14:40:09.604992,13.21823963,.00025814,87.9250,245.2897,82.9259,277.2168,0,U,54655,999,17067,-.2527181E-3,-.91E-6,0
ONEWEB-0590,2022-166Q,2026-06-10T15:16:19.460640,13.21826517,.00024825,87.9265,245.2744,103.7300,256.4111,0,U,54656,999,17066,.81478452E-4,.47E-6,0
ONEWEB-0591,2022-166R,2026-06-10T11:55:28.838784,13.21826410,.00021129,87.9254,245.3173,99.5854,260.5519,0,U,54657,999,17067,.15110439E-3,.75E-6,0
ONEWEB-0592,2022-166S,2026-06-10T12:00:18.747936,13.21827559,.00020394,87.9266,245.2942,99.1207,261.0158,0,U,54658,999,17055,.58485393E-4,.37E-6,0
ONEWEB-0593,2022-166T,2026-06-10T12:31:46.635456,13.21828122,.00019506,87.9254,245.3019,94.2644,265.8713,0,U,54659,999,17066,-.13598019E-3,-.43E-6,0
ONEWEB-0594,2022-166U,2026-06-10T14:49:50.843712,13.21824514,.00019946,87.9255,245.2993,101.2984,258.8374,0,U,54660,999,17069,-.1734529E-5,.12E-6,0
ONEWEB-0595,2022-166V,2026-06-10T14:15:57.225312,13.21827085,.00020329,87.9262,245.2841,106.6784,253.4574,0,U,54661,999,17066,-.14091061E-3,-.45E-6,0
ONEWEB-0596,2022-166W,2026-06-10T11:50:37.802976,13.21826955,.00020421,87.9257,245.3161,102.3764,257.7599,0,U,54662,999,17065,.10966602E-3,.58E-6,0
