ONEWEB-0522             
1 54140U 22138AD  26161.31896719  .00000024  00000+0  26595-4 0  9996
2 54140  87.9175 306.3250 0001686  95.9428 264.1897 13.19724316175906
ONEWEB-0523             
1 54141U 22138AE  26161.58999143  .00000090  00000+0  19022-3 0  9990
2 54141  87.9193 275.7550 0002762 103.2475 256.8966 13.20770880178435
ONEWEB-0524             
1 54142U 22138AF  26161.27686738  .00000050  00000+0  90640-4 0  9992
2 54142  87.9192 275.8145 0002403 120.9535 239.1835 13.20770618178394
ONEWEB-0525             
1 54143U 22138AG  26161.64118362  .00000070  00000+0  14208-3 0  9994
2 54143  87.9170 306.2686 0001474 102.2240 257.9058 13.19725364175964
ONEWEB-0526             
1 54144U 22138AH  26161.14364053  .00000049  00000+0  89314-4 0  9997
2 54144  87.9172 306.3682 0001725 100.6492 259.4835 13.19725168175876
ONEWEB-0529             
1 54145U 22138AJ  26161.14679375  .00000047  00000+0  84991-4 0  9998
2 54145  87.9165 306.3772 0001597  98.9539 261.1775 13.19723868175897
ONEWEB-0531             
1 54146U 22138AK  26161.33916716  .00000095  00000+0  20242-3 0  9994
2 54146  87.9189 275.7999 0002756 109.4336 250.7096 13.20771453178400
ONEWEB-0535             
1 54147U 22138AL  26161.63486426  .00000054  00000+0  10295-3 0  9990
2 54147  87.9172 306.2636 0002161  96.6225 263.5154 13.19725157175979
ONEWEB-0536             
1 54148U 22138AM  26161.55295662  .00000035  00000+0  54656-4 0  9991
2 54148  87.9179 275.7804 0002833 113.1418 247.0014 13.20771393178429
ONEWEB-0527             
1 54642U 22166A   26161.58335648  .00051463  00000+0  12387+0 0  9994
2 54642  87.9252 245.3241 0002361  93.1420 230.6032 13.21825554  5162
ONEWEB-0528             
1 54643U 22166B   26161.51609821  .00000017  00000+0  10590-4 0  9993
2 54643  87.9253 245.3268 0001809 102.9837 257.1499 13.21669214170668
ONEWEB-0539             
1 54644U 22166C   26161.62974718 -.00000013  00000+0 -62711-4 0  9996
2 54644  87.9262 245.2755 0002017  93.0769 267.0596 13.21826470170673
ONEWEB-0540             
1 54645U 22166D   26161.63660993  .00000073  00000+0  14436-3 0  9999
2 54645  87.9256 245.3049 0002063  96.1619 263.9750 13.21826449170665
ONEWEB-0542             
1 54646U 22166E   26161.48844059  .00000065  00000+0  12607-3 0  9999
2 54646  87.9264 245.3020 0002089  91.2557 268.8816 13.21827679170651
ONEWEB-0545             
1 54647U 22166F   26161.60450460 -.00000118  00000+0 -31746-3 0  9999
2 54647  87.9253 245.2913 0002238  86.8860 273.2530 13.21827674170639
ONEWEB-0580             
1 54648U 22166G   26161.50357451  .00000048  00000+0  85895-4 0  9990
2 54648  87.9256 245.3113 0002336  91.7220 268.4181 13.21827398170664
ONEWEB-0582             
1 54649U 22166H   26161.46994340  .00000016  00000+0  71548-5 0  9996
2 54649  87.9255 245.3105 0002262  89.2117 270.9276 13.21826554170633
ONEWEB-0583             
1 54650U 22166J   26161.63310518 -.00000006  00000+0 -46236-4 0  9992
2 54650  87.9256 245.3014 0002079  96.3451 263.7920 13.21827253170667
ONEWEB-0584             
1 54651U 22166K   26161.50189097  .00000038  00000+0  60488-4 0  9993
2 54651  87.9252 245.3131 0002142  97.5678 262.5699 13.21825409170637
ONEWEB-0585             
1 54652U 22166L   26161.60115097  .00000003  00000+0 -24594-4 0  9995
2 54652  87.9258 245.2803 0001936 103.2817 256.8533 13.21826945170650
ONEWEB-0586             
1 54653U 22166M   26161.61458462 -.00000079  00000+0 -22300-3 0  9999
2 54653  87.9253 245.3030 0002022  94.1345 266.0021 13.21824107170653
ONEWEB-0587             
1 54654U 22166N   26161.47328298 -.00000216  00000+0 -55414-3 0  9992
2 54654  87.9268 245.3040 0001932 109.4607 250.6736 13.21825708170796
ONEWEB-0589             
1 54655U 22166P   26161.61122228 -.00000091  00000+0 -25272-3 0  9994
2 54655  87.9250 245.2897 0002581  82.9259 277.2168 13.21823963170678
ONEWEB-0590             
1 54656U 22166Q   26161.63633635  .00000047  00000+0  81478-4 0  9996
2 54656  87.9265 245.2744 0002482 103.7300 256.4111 13.21826517170669
ONEWEB-0591             
1 54657U 22166R   26161.49686156  .00000075  00000+0  15110-3 0  9997
2 54657  87.9254 245.3173 0002112  99.5854 260.5519 13.21826410170672
ONEWEB-0592             
1 54658U 22166S   26161.50021699  .00000037  00000+0  58485-4 0  9996
2 54658  87.9266 245.2942 0002039  99.1207 261.0158 13.21827559170552
ONEWEB-0593             
1 54659U 22166T   26161.52206754 -.00000043  00000+0 -13598-3 0  9990
2 54659  87.9254 245.3019 0001950  94.2644 265.8713 13.21828122170666
ONEWEB-0594             
1 54660U 22166U   26161.61794958  .00000012  00000+0 -17345-5 0  9991
2 54660  87.9255 245.2993 0001994 101.2984 258.8374 13.21824514170692
ONEWEB-0595             
1 54661U 22166V   26161.59441233 -.00000045  00000+0 -14091-3 0  9994
2 54661  87.9262 245.2841 0002032 106.6784 253.4574 13.21827085170660
ONEWEB-0596             
1 54662U 22166W   26161.49349309  .00000058  00000+0  10967-3 0  9995
2 54662  87.9257 245.3161 0002042 102.3764 257.7599 13.21826955170651
